[{"OBJECT_NAME":"COSMO-SKYMED 2","OBJECT_ID":"2007-059A","EPOCH":"2026-03-09T23:42:47.291040","MEAN_MOTION":14.82166446,"ECCENTRICITY":0.00012683,"INCLINATION":97.8865,"RA_OF_ASC_NODE":254.0198,"ARG_OF_PERICENTER":84.565,"MEAN_ANOMALY":275.5708,"EPHEMERIS_TYPE":0,"CLASSIFICATION_TYPE":"U","NORAD_CAT_ID":32376,"ELEMENT_SET_NO":999,"REV_AT_EPOCH":98730,"BSTAR":9.1071047e-5,"MEAN_MOTION_DOT":6.73e-6,"MEAN_MOTION_DDOT":0},{"OBJECT_NAME":"SL-14 R\/B","OBJECT_ID":"1986-018B","EPOCH":"2026-03-09T17:21:36.966528","MEAN_MOTION":14.86680008,"ECCENTRICITY":0.00180747,"INCLINATION":82.5187,"RA_OF_ASC_NODE":182.8859,"ARG_OF_PERICENTER":65.0322,"MEAN_ANOMALY":295.277,"EPHEMERIS_TYPE":0,"CLASSIFICATION_TYPE":"U","NORAD_CAT_ID":16612,"ELEMENT_SET_NO":999,"REV_AT_EPOCH":4335,"BSTAR":7.8697814e-5,"MEAN_MOTION_DOT":7.25e-6,"MEAN_MOTION_DDOT":0}]
